{
    "links": {
        "self": "http://www.neowsapp.com/rest/v1/neo/3791287?api_key=iIulBulltgU6a56xZRHN4H3l9WmuAYTsLGpBGhQ2"
    },
    "id": "3791287",
    "neo_reference_id": "3791287",
    "name": "(2017 XD2)",
    "designation": "2017 XD2",
    "nasa_jpl_url": "http://ssd.jpl.nasa.gov/sbdb.cgi?sstr=3791287",
    "absolute_magnitude_h": 23.5,
    "estimated_diameter": {
        "kilometers": {
            "estimated_diameter_min": 0.0530340723,
            "estimated_diameter_max": 0.1185877909
        },
        "meters": {
            "estimated_diameter_min": 53.0340723319,
            "estimated_diameter_max": 118.5877908577
        },
        "miles": {
            "estimated_diameter_min": 0.0329538346,
            "estimated_diameter_max": 0.0736870142
        },
        "feet": {
            "estimated_diameter_min": 173.9963058693,
            "estimated_diameter_max": 389.0675677576
        }
    },
    "is_potentially_hazardous_asteroid": false,
    "close_approach_data": [
        {
            "close_approach_date": "2017-12-15",
            "close_approach_date_full": "2017-Dec-15 17:12",
            "epoch_date_close_approach": 1513357920000,
            "relative_velocity": {
                "kilometers_per_second": "12.2778838126",
                "kilometers_per_hour": "44200.3817254925",
                "miles_per_hour": "27464.3983004873"
            },
            "miss_distance": {
                "astronomical": "0.0368887076",
                "lunar": "14.3497072564",
                "kilometers": "5518472.084012812",
                "miles": "3429019.5472563256"
            },
            "orbiting_body": "Earth"
        },
        {
            "close_approach_date": "2101-11-15",
            "close_approach_date_full": "2101-Nov-15 05:51",
            "epoch_date_close_approach": 4161477060000,
            "relative_velocity": {
                "kilometers_per_second": "24.8944973711",
                "kilometers_per_hour": "89620.1905358444",
                "miles_per_hour": "55686.5011693418"
            },
            "miss_distance": {
                "astronomical": "0.4149259352",
                "lunar": "161.4061887928",
                "kilometers": "62072036.113678024",
                "miles": "38569774.7368197712"
            },
            "orbiting_body": "Earth"
        }
    ],
    "orbital_data": {
        "orbit_id": "1",
        "orbit_determination_date": "2017-12-14 08:12:11",
        "first_observation_date": "2017-12-09",
        "last_observation_date": "2017-12-14",
        "data_arc_in_days": 5,
        "observations_used": 61,
        "orbit_uncertainty": "8",
        "minimum_orbit_intersection": ".0206379",
        "jupiter_tisserand_invariant": "3.678",
        "epoch_osculation": "2458098.5",
        "eccentricity": ".56002623013669",
        "semi_major_axis": "1.94101777714578",
        "inclination": "9.651255228392527",
        "ascending_node_longitude": "265.8656408024017",
        "orbital_period": "987.7401246244535",
        "perihelion_distance": ".8539969087825312",
        "perihelion_argument": "222.7687163547095",
        "aphelion_distance": "3.028038645509029",
        "perihelion_time": "2458135.661974816579",
        "mean_anomaly": "346.4556368619175",
        "mean_motion": ".3644683363823807",
        "equinox": "J2000",
        "orbit_class": {
            "orbit_class_type": "APO",
            "orbit_class_description": "Near-Earth asteroid orbits which cross the Earth’s orbit similar to that of 1862 Apollo",
            "orbit_class_range": "a (semi-major axis) > 1.0 AU; q (perihelion) < 1.017 AU"
        }
    },
    "is_sentry_object": false
}